NORAD_CAT_ID,OBJECT_NAME,OBJECT_TYPE,EPOCH,MEAN_MOTION,ECCENTRICITY,INCLINATION,RA_OF_ASC_NODE,ARG_OF_PERICENTER,MEAN_ANOMALY,BSTAR,MEAN_MOTION_DOT,MEAN_MOTION_DDOT,TLE_LINE0,TLE_LINE1,TLE_LINE2,SEMIMAJOR_AXIS,PERIOD,APOGEE,PERIGEE,DECAYED
53267.0,STARLINK-4060,PAYLOAD,2023-04-23 19:38:17,15.08857601,0.0001984,53.2163,231.6659,63.0477,297.0718,0.0021428,0.00033996,0.0,0 STARLINK-4060,1 53267U 22086AB  23113.81825373  .00033996  00000-0  21428-2 0  9997,2 53267  53.2163 231.6659 0001984  63.0477 297.0718 15.08857601 42423,6917.827,95.436,541.064,538.319,0.0
53267.0,STARLINK-4060,PAYLOAD,2023-04-24 00:24:25,15.08853569,5.27e-05,53.2163,230.7742,154.9365,205.1652,0.0010966,0.00017214,0.0,0 STARLINK-4060,1 53267U 22086AB  23114.01696717  .00017214  00000-0  10966-2 0  9998,2 53267  53.2163 230.7742 0000527 154.9365 205.1652 15.08853569 42273,6917.839,95.437,540.068,539.339,0.0
53267.0,STARLINK-4060,PAYLOAD,2023-04-24 08:21:21,15.08940922,0.0001013,53.2166,229.2854,100.5547,259.556,0.0073163,0.00118441,0.0,0 STARLINK-4060,1 53267U 22086AB  23114.34816242  .00118441  00000-0  73163-2 0  9993,2 53267  53.2166 229.2854 0001013 100.5547 259.5560 15.08940922 42500,6917.572,95.431,540.138,538.736,0.0
53267.0,STARLINK-4060,PAYLOAD,2023-04-25 11:22:54,15.08799332,0.0001067,53.2164,224.2319,128.3946,231.7142,-0.0004571,-7.547e-05,0.0,0 STARLINK-4060,1 53267U 22086AB  23115.47424186 -.00007547  00000-0 -45710-3 0  9994,2 53267  53.2164 224.2319 0001067 128.3946 231.7142 15.08799332 42492,6918.005,95.44,540.608,539.132,0.0
53267.0,STARLINK-4060,PAYLOAD,2023-04-26 11:13:43,15.08829139,0.0001087,53.2168,219.7725,121.6299,238.4799,0.0013793,0.00021725,0.0,0 STARLINK-4060,1 53267U 22086AB  23116.46786471  .00021725  00000-0  13793-2 0  9999,2 53267  53.2168 219.7725 0001087 121.6299 238.4799 15.08829139 42823,6917.914,95.438,540.531,539.027,0.0
53267.0,STARLINK-4060,PAYLOAD,2023-04-27 11:04:30,15.08863438,0.0001014,53.2149,215.3113,109.7008,250.4094,0.0013421,0.0002115,0.0,0 STARLINK-4060,1 53267U 22086AB  23117.46146126  .00021150  00000-0  13421-2 0  9997,2 53267  53.2149 215.3113 0001014 109.7008 250.4094 15.08863438 42978,6917.809,95.436,540.375,538.972,0.0
53267.0,STARLINK-4060,PAYLOAD,2023-04-28 06:09:07,15.08851481,0.0001497,53.2161,211.7436,92.0611,268.0553,0.00029411,4.397e-05,0.0,0 STARLINK-4060,1 53267U 22086AB  23118.25633774  .00004397  00000-0  29411-3 0  9996,2 53267  53.2161 211.7436 0001497  92.0611 268.0553 15.08851481 42913,6917.845,95.437,540.746,538.675,0.0
53267.0,STARLINK-4060,PAYLOAD,2023-04-28 12:30:39,15.08854733,8.88e-05,53.2147,210.5528,92.5156,267.5938,0.00054995,8.479e-05,0.0,0 STARLINK-4060,1 53267U 22086AB  23118.52129484  .00008479  00000-0  54995-3 0  9994,2 53267  53.2147 210.5528 0000888  92.5156 267.5938 15.08854733 43137,6917.835,95.437,540.315,539.086,0.0
53267.0,STARLINK-4060,PAYLOAD,2023-04-28 23:38:21,15.08848821,0.0001075,53.2143,208.4728,78.5659,281.5454,0.00036384,5.509e-05,0.0,0 STARLINK-4060,1 53267U 22086AB  23118.98497670  .00005509  00000-0  36384-3 0  9992,2 53267  53.2143 208.4728 0001075  78.5659 281.5454 15.08848821 43020,6917.853,95.437,540.462,538.975,0.0
53267.0,STARLINK-4060,PAYLOAD,2023-04-29 12:21:26,15.08847686,0.0001111,53.2149,206.0941,69.1399,290.9712,0.00028328,4.224e-05,0.0,0 STARLINK-4060,1 53267U 22086AB  23119.51489544  .00004224  00000-0  28328-3 0  9995,2 53267  53.2149 206.0941 0001111  69.1399 290.9712 15.08847686 43282,6917.857,95.437,540.49,538.953,0.0
53267.0,STARLINK-4060,PAYLOAD,2023-04-30 12:12:13,15.08842902,0.0001048,53.2154,201.6315,78.3356,281.7754,6.1925e-05,6.98e-06,0.0,0 STARLINK-4060,1 53267U 22086AB  23120.50849534  .00000698  00000-0  61925-4 0  9997,2 53267  53.2154 201.6315 0001048  78.3356 281.7754 15.08842902 43255,6917.872,95.437,540.462,539.012,0.0
53267.0,STARLINK-4060,PAYLOAD,2023-05-01 05:41:28,15.08840401,0.0001737,53.2167,198.3595,106.4263,253.692,6.6019e-05,7.63e-06,0.0,0 STARLINK-4060,1 53267U 22086AB  23121.23714031  .00000763  00000-0  66019-4 0  9993,2 53267  53.2167 198.3595 0001737 106.4263 253.6920 15.08840401 43363,6917.879,95.438,540.946,538.543,0.0
53267.0,STARLINK-4060,PAYLOAD,2023-05-01 10:27:38,15.08838172,0.0001497,53.217,197.4673,128.2883,231.8244,5.4317e-05,5.77e-06,0.0,0 STARLINK-4060,1 53267U 22086AB  23121.43585732  .00000577  00000-0  54317-4 0  9990,2 53267  53.2170 197.4673 0001497 128.2883 231.8244 15.08838172 43579,6917.886,95.438,540.787,538.715,0.0
53267.0,STARLINK-4060,PAYLOAD,2023-05-01 15:13:47,15.08842098,0.0001121,53.2172,196.5791,98.8658,261.2462,3.2492e-05,2.29e-06,0.0,0 STARLINK-4060,1 53267U 22086AB  23121.63457569  .00000229  00000-0  32492-4 0  9992,2 53267  53.2172 196.5791 0001121  98.8658 261.2462 15.08842098 43603,6917.874,95.437,540.514,538.963,0.0
53267.0,STARLINK-4060,PAYLOAD,2023-05-02 10:18:24,15.08847489,0.0001135,53.2172,193.0109,97.2087,262.9034,0.00023567,3.466e-05,0.0,0 STARLINK-4060,1 53267U 22086AB  23122.42945533  .00003466  00000-0  23567-3 0  9991,2 53267  53.2172 193.0109 0001135  97.2087 262.9034 15.08847489 43547,6917.857,95.437,540.508,538.937,0.0
53267.0,STARLINK-4060,PAYLOAD,2023-05-02 13:29:11,15.08851643,0.0001176,53.2171,192.4162,103.3932,256.7191,0.00031783,4.776e-05,0.0,0 STARLINK-4060,1 53267U 22086AB  23122.56193341  .00004776  00000-0  31783-3 0  9992,2 53267  53.2171 192.4162 0001176 103.3932 256.7191 15.08851643 43745,6917.845,95.437,540.523,538.896,0.0
53267.0,STARLINK-4060,PAYLOAD,2023-05-03 11:44:35,15.08837044,0.0001033,53.2161,188.252,87.1545,272.9565,2.0231e-05,3.4e-07,0.0,0 STARLINK-4060,1 53267U 22086AB  23123.48930054  .00000034  00000-0  20231-4 0  9994,2 53267  53.2161 188.2520 0001033  87.1545 272.9565 15.08837044 43706,6917.889,95.438,540.469,539.04,0.0
53267.0,STARLINK-4060,PAYLOAD,2023-05-03 16:30:44,15.08841424,0.0001262,53.2163,187.3583,109.311,250.8019,8.7025e-05,1.097e-05,0.0,0 STARLINK-4060,1 53267U 22086AB  23123.68801997  .00001097  00000-0  87025-4 0  9993,2 53267  53.2163 187.3583 0001262 109.3110 250.8019 15.08841424 43915,6917.876,95.437,540.614,538.868,0.0
53267.0,STARLINK-4060,PAYLOAD,2023-05-04 11:35:22,15.08846236,0.0001081,53.2159,183.7908,105.2847,254.8265,0.00017287,2.465e-05,0.0,0 STARLINK-4060,1 53267U 22086AB  23124.48289806  .00002465  00000-0  17287-3 0  9993,2 53267  53.2159 183.7908 0001081 105.2847 254.8265 15.08846236 44039,6917.861,95.437,540.474,538.979,0.0
53267.0,STARLINK-4060,PAYLOAD,2023-05-04 21:07:41,15.08844559,0.0001084,53.2157,182.0074,86.9532,273.1584,0.00015786,2.226e-05,0.0,0 STARLINK-4060,1 53267U 22086AB  23124.88033995  .00002226  00000-0  15786-3 0  9990,2 53267  53.2157 182.0074 0001084  86.9532 273.1584 15.08844559 43912,6917.866,95.437,540.481,538.982,0.0
53267.0,STARLINK-4060,PAYLOAD,2023-05-05 20:58:28,15.08837355,0.0001076,53.2149,177.5448,90.4564,269.6552,8.0445e-05,9.93e-06,0.0,0 STARLINK-4060,1 53267U 22086AB  23125.87394517  .00000993  00000-0  80445-4 0  9994,2 53267  53.2149 177.5448 0001076  90.4564 269.6552 15.08837355 44061,6917.888,95.438,540.498,539.009,0.0
53267.0,STARLINK-4060,PAYLOAD,2023-05-06 08:06:10,15.08842599,0.0001112,53.2151,175.4618,107.7385,252.3728,9.8983e-05,1.288e-05,0.0,0 STARLINK-4060,1 53267U 22086AB  23126.33762296  .00001288  00000-0  98983-4 0  9993,2 53267  53.2151 175.4618 0001112 107.7385 252.3728 15.08842599 44312,6917.872,95.437,540.507,538.968,0.0
53267.0,STARLINK-4060,PAYLOAD,2023-05-07 03:10:48,15.08834283,0.0001075,53.2144,171.8949,89.9566,270.1549,0.0004553,6.965e-05,0.0,0 STARLINK-4060,1 53267U 22086AB  23127.13250852  .00006965  00000-0  45530-3 0  9998,2 53267  53.2144 171.8949 0001075  89.9566 270.1549 15.08834283 44254,6917.898,95.438,540.507,539.019,0.0
53267.0,STARLINK-4060,PAYLOAD,2023-05-07 09:32:20,15.08846866,0.0001184,53.2143,170.7055,84.2339,275.8788,0.00019315,2.788e-05,0.0,0 STARLINK-4060,1 53267U 22086AB  23127.39746101  .00002788  00000-0  19315-3 0  9994,2 53267  53.2143 170.7055 0001184  84.2339 275.8788 15.08846866 44297,6917.859,95.437,540.543,538.905,0.0
53267.0,STARLINK-4060,PAYLOAD,2023-05-08 09:23:07,15.08839595,0.0001151,53.2142,166.245,85.8505,274.2618,6.7681e-05,7.89e-06,0.0,0 STARLINK-4060,1 53267U 22086AB  23128.39106408  .00000789  00000-0  67681-4 0  9994,2 53267  53.2142 166.2450 0001151  85.8505 274.2618 15.08839595 44444,6917.882,95.438,540.543,538.95,0.0
53267.0,STARLINK-4060,PAYLOAD,2023-05-08 18:55:26,15.08840275,0.0001138,53.2143,164.4609,84.6888,275.4234,3.563e-05,2.79e-06,0.0,0 STARLINK-4060,1 53267U 22086AB  23128.78850343  .00000279  00000-0  35630-4 0  9994,2 53267  53.2143 164.4609 0001138  84.6888 275.4234 15.08840275 44687,6917.88,95.438,540.532,538.957,0.0
53267.0,STARLINK-4060,PAYLOAD,2023-05-09 07:38:31,15.08840932,0.0001109,53.2154,162.0818,85.2001,274.9118,5.2107e-05,5.42e-06,0.0,0 STARLINK-4060,1 53267U 22086AB  23129.31842355  .00000542  00000-0  52107-4 0  9999,2 53267  53.2154 162.0818 0001109  85.2001 274.9118 15.08840932 44761,6917.878,95.437,540.51,538.975,0.0
53267.0,STARLINK-4060,PAYLOAD,2023-05-10 07:29:19,15.0883598,0.000114,53.2159,157.6249,95.2016,264.9106,7.4401e-05,8.96e-06,0.0,0 STARLINK-4060,1 53267U 22086AB  23130.31202863  .00000896  00000-0  74401-4 0  9998,2 53267  53.2159 157.6249 0001140  95.2016 264.9106 15.08835980 44916,6917.893,95.438,540.546,538.969,0.0
53267.0,STARLINK-4060,PAYLOAD,2023-05-10 18:37:01,15.08838707,0.000115,53.2159,155.5433,94.6348,265.4776,9.9999e-05,1.304e-05,0.0,0 STARLINK-4060,1 53267U 22086AB  23130.77570741  .00001304  00000-0  99999-4 0  9995,2 53267  53.2159 155.5433 0001150  94.6348 265.4776 15.08838707 44986,6917.884,95.438,540.545,538.954,0.0
53267.0,STARLINK-4060,PAYLOAD,2023-05-11 08:55:29,15.08839555,0.0001194,53.2162,152.8682,104.3696,255.7429,7.2359e-05,8.64e-06,0.0,0 STARLINK-4060,1 53267U 22086AB  23131.37186792  .00000864  00000-0  72359-4 0  9992,2 53267  53.2162 152.8682 0001194 104.3696 255.7429 15.08839555 44898,6917.882,95.438,540.573,538.921,0.0
